P/2014 C1 (TOTAS),e,2.6812,167.8166,24.1676,3.044284,0.1855566,0.44683112,48.9304,01/02.0/2020,2000,g 15.5,4.0
# From MPC 91614
P/2014 E1 (Larson),e,15.9770,39.0451,185.9879,3.713014,0.1377572,0.42367647,282.1538,01/02.0/2020,2000,g 14.0,4.0
# From MPC 97495
C/2014 F2 (Tenagra),e,119.1102,267.4481,86.1485,153.2734,0.0005194,0.97185022,0.0000,01/04.0539/2015,2000,g  9.5,4.0
# From MPC 94280
C/2014 F3 (Sheppard-Trujillo),e,6.5147,327.0655,1.9177,16.27236,0.0150151,0.64925993,352.6630,01/02.0/2020,2000,g  6.0,4.0
# From MPC101095
C/2014 G3 (PANSTARRS),e,156.0837,4.7804,148.2342,54.07499,0.0024786,0.91290834,4.4455,01/02.0/2020,2000,g  9.0,4.0
# From MPC105541
C/2014 HU195 (Valdes-TOTAS),e,5.8174,115.7421,145.3565,22.11611,0.0094763,0.76791608,15.9964,01/02.0/2020,2000,g 10.5,4.0
# From MPC 98560
P/2014 L2 (NEOWISE),e,5.1940,149.3568,182.6242,6.304231,0.0622667,0.64769274,124.2061,01/02.0/2020,2000,g 12.0,4.0
# From MPC 90769
P/2014 L3 (Hill),e,6.2767,115.4737,178.5973,8.162449,0.0422643,0.77393613,85.0028,01/02.0/2020,2000,g 16.0,4.0
# From MPC103844
C/2014 M1 (PANSTARRS),e,160.2184,234.7712,337.1123,7624,0.0000015,0.99926606,0.0000,08/27.4802/2015,2000,g  9.0,4.0
# From MPC 91614
P/2014 M4 (PANSTARRS),e,3.3344,263.2865,147.9849,5.878013,0.0691605,0.59341089,126.8672,01/02.0/2020,2000,g 15.0,4.0
# From MPC103844
P/2014 MG4 (Spacewatch-PANSTARRS),e,9.3700,311.7403,299.0412,5.011649,0.0878483,0.26006110,209.9159,01/02.0/2020,2000,g  9.5,4.0
# From MPC103844
C/2014 N3 (NEOWISE),e,61.6572,19.8569,353.4012,1589,0.0000156,0.99756351,0.0000,03/12.6270/2015,2000,g  7.0,4.0
# From MPC 98560
P/2014 O3 (PANSTARRS),e,7.8092,87.6392,204.4754,7.557545,0.0474387,0.38641710,98.8188,01/02.0/2020,2000,g 10.5,4.0
# From MPC118840
C/2014 OE4 (PANSTARRS),h,12/12.3137/2016,81.3395,240.3972,65.8504,1.002373,6.247308,2000,11.0,2.0
# From MPC100578
C/2014 Q1 (PANSTARRS),e,43.0675,9.0335,119.9647,992.7482,0.0000315,0.99967927,0.0000,07/05.3467/2015,2000,g  8.0,4.0
# From MPC115880
C/2014 Q2 (Lovejoy),e,80.1905,95.0451,12.3511,419.0555,0.0001149,0.99691754,0.0000,01/28.3550/2015,2000,g  2.7,10.0
# From MPC118840
C/2014 Q6 (PANSTARRS),e,49.8148,326.5292,2.5395,7027,0.0000017,0.99939968,0.0000,01/06.6855/2015,2000,g  9.5,4.0
# From MPC115880
C/2014 R3 (PANSTARRS),e,90.8952,334.0918,113.4633,7084,0.0000017,0.99897277,0.0000,08/08.7011/2016,2000,g  6.5,4.0
# From MPC 91615
P/2014 R5 (Lemmon-PANSTARRS),e,1.0882,126.5491,213.6970,4.057537,0.1205897,0.41317733,244.1947,01/02.0/2020,2000,g 15.0,4.0
# From MPC104790
C/2014 S2 (PANSTARRS),e,64.4614,8.0984,87.3669,171.8630,0.0004375,0.98787965,0.0000,12/09.0558/2015,2000,g 10.0,4.0
# From MPC 91616
P/2014 U4 (PANSTARRS),e,6.4307,11.9768,347.7709,3.506013,0.1501356,0.46555913,298.6540,01/02.0/2020,2000,g 18.0,4.0
# From MPC 95211
P/2014 V1 (PANSTARRS),e,22.5010,166.2109,177.5482,5.482932,0.0767688,0.53362377,138.6766,01/02.0/2020,2000,g 14.0,4.0
# From MPC 93586
P/2014 W1 (PANSTARRS),e,8.8404,246.2443,152.3510,4.459558,0.1046565,0.38872527,208.3226,01/02.0/2020,2000,g 15.5,4.0
# From MPC110493
C/2014 W2 (PANSTARRS),e,82.0307,69.9636,84.9390,613.9131,0.0000648,0.99564777,0.0000,03/08.7341/2016,2000,g  7.5,4.0
# From MPC105542
P/2014 W4 (PANSTARRS),e,15.2676,33.3483,67.9764,6.603876,0.0580772,0.35223737,84.9348,01/02.0/2020,2000,g 11.0,4.0
# From MPC 95211
C/2014 W6 (Catalina),h,03/18.3094/2015,53.4942,338.1969,209.9501,1.001318,3.096934,2000,10.5,4.0
# From MPC 92982
C/2014 W7 (Christensen),e,98.1293,151.2673,33.2547,11.39419,0.0256259,0.86939404,46.8355,01/02.0/2020,2000,g 16.0,4.0
# From MPC 91616
C/2014 W8 (PANSTARRS),e,41.9581,224.8339,227.9998,170.9136,0.0004411,0.97062455,0.0000,09/08.9683/2015,2000,g 11.0,4.0
# From MPC 94672
C/2014 W9 (PANSTARRS),e,10.6166,21.3503,167.8972,11.20943,0.0262621,0.85739415,46.8125,01/02.0/2020,2000,g 16.0,4.0
# From MPC115880
C/2014 W10 (PANSTARRS),e,82.8644,43.1353,43.6749,869.2785,0.0000385,0.99128542,0.0000,03/04.9155/2016,2000,g  8.0,4.0
# From MPC107047
C/2014 W11 (PANSTARRS),e,13.2312,295.6426,225.9174,9.817262,0.0320419,0.65477727,52.7295,01/02.0/2020,2000,g 10.0,4.0
# From MPC 93587
P/2014 W12 (Gibbs),e,8.5141,299.2887,36.9225,3.517316,0.1494125,0.52390601,280.1502,01/02.0/2020,2000,g 15.0,4.0
# From MPC 94281
P/2014 X1 (Elenin),e,25.9998,61.5022,34.0318,6.212690,0.0636480,0.70862494,116.1742,01/02.0/2020,2000,g 15.0,4.0
# From MPC 96866
C/2014 XB8 (PANSTARRS),e,149.7900,37.4893,351.3010,634.4712,0.0000617,0.99526499,0.0000,04/04.1311/2015,2000,g 13.5,4.0
# From MPC100579
C/2014 Y1 (PANSTARRS),h,01/16.9205/2016,14.9186,19.5204,182.3442,1.001702,2.250299,2000,9.5,4.0
# From MPC 96279
C/2015 A1 (PANSTARRS),e,80.2142,341.0352,244.9314,20.24258,0.0108219,0.90135225,19.0031,01/02.0/2020,2000,g 14.5,4.0
# From MPC 93587
C/2015 A2 (PANSTARRS),p,08/01.8353/2015,109.1696,208.8369,5.341055,258.5042,2000,10.5,4.0
# From MPC 92275
P/2015 A3 (PANSTARRS),e,172.5279,277.1584,249.2058,7.807853,0.0451759,0.85184958,80.3071,01/02.0/2020,2000,g 20.0,4.0
# From MPC 99270
P/2015 B1 (PANSTARRS),e,18.0223,353.0907,188.7146,9.504804,0.0336348,0.36986496,52.7217,01/02.0/2020,2000,g  8.5,4.0
# From MPC108592
C/2015 B2 (PANSTARRS),h,05/06.1804/2016,105.0204,341.8752,284.7204,1.000284,3.368313,2000,9.5,4.0
# From MPC109141
P/2015 B4 (Lemmon-PANSTARRS),e,1.7605,266.0264,227.5267,8.540371,0.0394902,0.56114704,70.6773,01/02.0/2020,2000,g 11.0,4.0
# From MPC101096
P/2015 C1 (TOTAS-Gibbs),e,13.8837,348.8365,178.4064,6.590323,0.0582565,0.56038463,99.5360,01/02.0/2020,2000,g 12.5,4.0
# From MPC 95211
C/2015 C2 (SWAN),e,94.5302,49.5138,333.9621,346.9658,0.0001525,0.99796577,0.0000,03/03.9643/2015,2000,g 14.0,4.0
# From MPC115880
C/2015 D3 (PANSTARRS),h,05/03.1669/2016,128.5418,157.0329,3.0003,1.003849,8.149689,2000,5.5,4.0
# From MPC109141
P/2015 D5 (Kowalski),e,20.4933,74.0609,40.0032,8.981059,0.0366195,0.48911251,76.9104,01/02.0/2020,2000,g  9.0,4.0
# From MPC 96866
P/2015 D6 (Lemmon-PANSTARRS),e,20.2112,46.1393,125.2893,7.154564,0.0515026,0.36268122,84.4335,01/02.0/2020,2000,g 10.5,4.0
# From MPC112390
C/2015 ER61 (PANSTARRS),e,6.3467,235.2061,68.2175,453.6533,0.0001020,0.99770388,0.0000,05/10.2499/2017,2000,g 11.0,2.0
# From MPEC 2018-BF5
C/2015 E61-B (PANSTARRS),e,6.3483,235.2412,68.3067,1114,0.0000265,0.99906302,0.0000,05/10.2275/2017,2000,g 13.5,2.0
# From MPC109142
P/2015 F1 (PANSTARRS),e,2.8026,40.4089,187.3990,3.524044,0.1489848,0.27829510,261.0335,01/02.0/2020,2000,g 12.5,4.0
# From MPC 98561
C/2015 F2 (Polonia),e,28.7294,262.4465,352.2227,39.13522,0.0040258,0.96897654,6.8785,01/02.0/2020,2000,g 16.5,4.0
# From MPC 96279
C/2015 F3 (SWAN),e,73.5343,31.7084,57.4515,180.1449,0.0004076,0.99536720,0.0000,03/07.5288/2015,2000,g 14.5,4.0
# From MPC115880
C/2015 F4 (Jacques),e,48.8044,285.9194,36.3168,116.8872,0.0007799,0.98597044,0.0000,08/11.7452/2015,2000,g 11.0,4.0
# From MPC 95212
C/2015 F5 (SWAN-Xingming),e,149.3759,287.7500,13.4757,15.56854,0.0160447,0.97757817,0.0000,03/28.2983/2015,2000,g 15.5,4.0
# From MPC102096
C/2015 GX (PANSTARRS),e,90.2654,235.4996,108.8220,16.16662,0.0151627,0.87860119,24.0858,01/02.0/2020,2000,g 14.0,4.0
# From MPC109142
C/2015 G2 (MASTER),h,05/24.6609/2015,147.6608,110.2437,257.6516,1.000606,0.779781,2000,11.0,4.0
# From MPC 98561
C/2015 H1 (Bressi),e,140.6670,325.8528,21.9319,32.03121,0.0054368,0.93950448,9.4702,01/02.0/2020,2000,g 13.5,4.0
# From MPC117068
C/2015 H2 (PANSTARRS),h,09/14.1686/2016,33.6729,350.6923,288.0194,1.005441,4.972372,2000,7.5,4.0
# From MPC100280
P/2015 HG16 (PANSTARRS),e,18.8598,59.2333,47.2335,4.754483,0.0950712,0.34847848,191.7930,01/02.0/2020,2000,g 12.5,4.0
# From MPC101096
C/2015 J2 (PANSTARRS),e,17.2752,56.7484,203.8854,292.9512,0.0001966,0.98521732,0.0000,09/09.9989/2015,2000,g 10.0,4.0
# From MPC 95733
P/2015 J3 (NEOWISE),e,8.1307,111.3516,129.4277,3.349641,0.1607706,0.55452592,283.4605,01/02.0/2020,2000,g 16.5,4.0
# From MPC 95733
C/2015 K2 (PANSTARRS),e,29.0885,223.7145,15.9345,304.9439,0.0001851,0.99520483,0.0000,06/08.9817/2015,2000,g 20.0,4.0
# From MPC 95733
C/2015 K4 (PANSTARRS),h,05/01.8492/2015,80.2668,250.7265,357.7223,1.000883,2.016960,2000,15.0,4.0
# From MPC 95213
P/2015 K5 (PANSTARRS),e,39.9478,134.1952,106.2634,6.716506,0.0566225,0.55421248,94.5791,01/02.0/2020,2000,g 13.5,4.0
# From MPC111767
C/2015 LC2 (PANSTARRS),h,05/02.2706/2015,93.7205,223.5951,342.0229,1.000389,5.905098,2000,8.0,4.0
# From MPC 95734
C/2015 M1 (PANSTARRS),e,57.3305,100.1739,164.1685,446.5545,0.0001044,0.99530178,0.0000,05/15.9078/2015,2000,g 16.5,4.0
# From MPC107684
P/2015 M2 (PANSTARRS),e,3.9736,86.5781,225.1444,7.221741,0.0507857,0.18102613,80.2190,01/02.0/2020,2000,g  8.5,4.0
# From MPC115881
C/2015 M3 (PANSTARRS),e,65.8809,143.0190,123.8635,138.4973,0.0006047,0.97431677,0.0000,08/26.3076/2015,2000,g 12.0,4.0
# From MPC112390
C/2015 O1 (PANSTARRS),h,02/19.2996/2018,127.2219,299.8519,89.6279,1.000551,3.730323,2000,6.5,4.0
# From MPC 96280
C/2015 P3 (SWAN),e,58.2016,87.9852,133.1003,265.4708,0.0002279,0.99728307,0.0000,07/27.5116/2015,2000,g 15.5,4.0
# From MPC 99819
P/2015 P4 (PANSTARRS),e,8.7178,104.7664,280.6094,6.052827,0.0661861,0.58395074,95.5826,01/02.0/2020,2000,g 14.0,4.0
# From MPC102952
P/2015 PD229 (Cameron-ISON),e,2.0258,342.6572,352.3323,7.178705,0.0512430,0.32785877,82.0830,01/02.0/2020,2000,g 11.5,2.0
# From MPC 99819
P/2015 Q1 (Scotti),e,22.4120,203.0624,199.8824,3.468701,0.1525646,0.47899193,241.9769,01/02.0/2020,2000,g 14.0,4.0
# From MPC 96867
P/2015 Q2 (Pimentel),e,146.4661,228.3720,244.4032,7.344257,0.0495202,0.75135192,78.1649,01/02.0/2020,2000,g 15.5,4.0
# From MPC 98562
P/2015 R1 (PANSTARRS),e,22.6733,48.4862,300.3790,5.881728,0.0690950,0.63353771,114.0303,01/02.0/2020,2000,g 14.0,4.0
# From MPC 95734
P/2015 R2 (PANSTARRS),e,15.4708,168.6158,149.6971,4.489861,0.1035988,0.45246757,172.6414,01/02.0/2020,2000,g 14.5,4.0
# From MPC117068
C/2015 T2 (PANSTARRS),e,124.5485,51.0501,30.6746,2927,0.0000062,0.99763144,0.0000,05/19.0101/2017,2000,g  8.0,4.0
# From MPC 96280
